ALTAIR PATHFINDER       
1 42711U 98067LS  17345.92479558  .00010411  00000-0  13381-3 0  9990
2 42711  51.6374 228.1502 0004384 183.5231 176.5732 15.59714676 32204
